ID ,street,city,state,zipcode,
1,1451-1461 Bernard Dr ,Addison,  Illinois,60101,
2,17130 Racoon Ave ,Adelanto,  California,92301,
3,4380 Alexander Blvd NE ,Albuquerque,  New Mexico,87101,
4,6200-6206 Gravel Ave ,Alexandria,  Virginia,22301,
5,767 S Auto Mall Dr ,American Fork,  Utah,84003,
6,2780 E Regal Park Dr ,Anaheim,  California,92801,
7,1545 Mountain Rd ,Andersonville,  Tennessee,37705,
8,6855 US Hwy 41 ,Apollo Beach,  Florida,33572,
9,11626-11632 Goldring Rd ,Arcadia,  California,91006,
10,118-126 La Porte St ,Arcadia,  California,91006,
11,18610 W Highway 72 ,Arvada,  Colorado,80001,
12,188 Patton Ave ,Asheville,  North Carolina,28801,
13,1401 Hills Pl NW ,Atlanta,  Georgia,30301,
14,580 Exchange Ct ,Aurora,  Illinois,60502,
15,12317 Technology Blvd ,Austin,  Texas,73301,
16,6231 E Stassney Ln ,Austin,  Texas,73301,
17,1 Kiddie Dr ,Avon,  Massachusetts,2322,
18,7101 Schirra Ct ,Bakersfield,  California,93301,
19,161 Quantico Ave ,Bakersfield,  California,93301,
20,2924 E Belle Ter ,Bakersfield,  California,93301,
21,2912 E Belle Ter ,Bakersfield,  California,93301,
22,70 Corbin Ave ,Bay Shore,  New York,11706,
23,281 Skip Ln ,Bay Shore,  New York,11706,
24,171 Heller Pl ,Bellmawr,  New Jersey,8031,
25,61560 American Ln ,Bend,  Oregon,97701,
26,20720 High Desert Ln ,Bend,  Oregon,97701,
27,800 Haunted Ln ,Bensalem,  Pennsylvania,19020,
28,7620-7634 NW 6th Ave ,Boca Raton,  Florida,33427,
29,1020 Holland Dr ,Boca Raton,  Florida,33427,
30,1020 Holland Dr ,Boca Raton,  Florida,33427,
31,199 NW 28th St ,Boca Raton,  Florida,33427,
32,79 Carlough Rd ,Bohemia,  New York,11716,
33,7665 W Mossy Cup St ,Boise,  Idaho,83701,
34,5116 W Emerald St ,Boise,  Idaho,83701,
35,47 Langdon St ,Boston,  Massachusetts,2108,
36,1069-1085 Connecticut Ave ,Bridgeport,  Connecticut,6601,
37,450-456 Concord Ave ,Bronx,  New York,10451,
38,30 Pocono Rd ,Brookfield,  Connecticut,6804,
39,58-73 West St ,Brooklyn,  New York,11201,
40,94-98 Bogart St ,Brooklyn,  New York,11201,
41,4422 2nd Ave ,Brooklyn,  New York,11201,
42,219-223 Eagle St ,Brooklyn,  New York,11201,
43,189 1st St ,Brooklyn,  New York,11201,
44,5369 Kings Hwy ,Brooklyn,  New York,11201,
45,1250-1260 Utica Ave ,Brooklyn,  New York,11201,
46,129 31st St ,Brooklyn,  New York,11201,
47,551 Stewart Ave ,Brooklyn,  New York,11201,
48,236 Trademark St ,Buda,  Texas,78610,
49,2611 Lavista Dr ,Burlington,  North Carolina,27215,
50,3233 E Mission Oaks Blvd ,Camarillo,  California,93010,
51,1221 Avenida Acaso ,Camarillo,  California,93010,
52,1387 SW Clarendon Ave ,Canton,  Ohio,44701,
53,26846 Oak Ave ,Canyon Country,  California,91351,
54,1101 Hampton Park Blvd ,Capitol Heights,  Maryland,20731,
55,707 Commercial Ave ,Carlstadt,  New Jersey,7072,
56,20 Old Route 6 ,Carmel,  New York,10512,
57,120 Easy St ,Carol Stream,  Illinois,60116,
58,1210 W Tee St ,Casa Grande,  Arizona,85122,
59,650 Capital Dr SW ,Cedar Rapids,  Iowa,52401,
60,16031 Carmenita Rd ,Cerritos,  California,90703,
61,15716 Avenue C ,Channelview,  Texas,77530,
62,7300 Reames Rd ,Charlotte,  North Carolina,28201,
63,3300 Oak Lake Blvd ,Charlotte,  North Carolina,28201,
64,1900 N Austin Ave ,Chicago,  Illinois,60601,
65,1010 W 35th St ,Chicago,  Illinois,60601,
66,451-453 N Elizabeth St ,Chicago,  Illinois,60601,
67,3030 N Western Ave ,Chicago,  Illinois,60601,
68,13816 Magnolia Ave ,Chino,  California,91708,
69,5787 McCully St ,Chino,  California,91708,
70,3802 Main St ,Chula Vista,  California,91909,
71,232-242 S 5th Ave ,City Of Industry,  California,91714,
72,2845 Pellissier Pl ,City of Industry,  California,91714,
73,15310-15332 E Valley Blvd ,City Of Industry,  California,91714,
74,17521 Railroad St ,City of Industry,  California,91714,
75,12402 SE Jennifer St ,Clackamas,  Oregon,97015,
76,100 Cheshire Ct ,Coatesville,  Pennsylvania,19320,
77,3021 N El Paso St ,Colorado Springs,  Colorado,80901,
78,845 Markison Ave ,Columbus,  Ohio,43085,
79,50 Kingston Ave ,Columbus,  Ohio,43085,
80,1304 Indianola Ave ,Columbus,  Ohio,43085,
81,2041-2065 Commerce Ave ,Concord,  California,94518,
82,100 Wells Ave ,Congers,  New York,10920,
83,524 Malloy Ct ,Corona,  California,92877,
84,728-739 Diamond Cut Dr ,Corpus Christi,  Texas,78401,
85,13901-13909 Kostner St ,Crestwood,  Illinois,8810,
86,285 Ridge Rd ,Dayton,  New Jersey,77536,
87,905 W 13th St ,Deer Park,  Texas,33441,
88,3422 SW 15th St ,Deerfield Beach,  Florida,33444,
89,601 N Congress Ave ,Delray Beach,  Florida,28037,
90,3988-3990 Ulster St ,Denver,  Colorado,50301,
91,3415 Denver Dr ,Denver,  North Carolina,48201,
92,5485 NE 17th St ,Des Moines,  Iowa,60419,
93,6109 Willowmere Dr ,Des Moines,  Iowa,60419,
94,1600 Clay St ,Detroit,  Michigan,19901,
95,3900 E Outer Dr ,Detroit,  Michigan,19901,
96,14723 S Drexel Ave ,Dolton,  Illinois,60515,
97,2335 NW 107th Ave ,Doral,  Florida,7073,
98,2315 NW 107th Ave ,Doral,  Florida,7073,
99,60 Starlifter Ave ,Dover,  Delaware,8817,
100,5101-5111 Chase Ave ,Downers Grove,  Illinois,46514,
101,433 Murray Hill Pky ,East Rutherford,  New Jersey,22718,
102,3001 Woodbridge Ave ,Edison,  New Jersey,11735,
103,1137 Verdant Dr ,Elkhart,  Indiana,28301,
104,13142 Airpark Dr ,Elkwood,  Virginia,63026,
105,1005 Whitehead Road Ext ,Ewing,  New Jersey,92331,
106,1445 Lower Ferry Rd ,Ewing,  New Jersey,92331,
107,303 Smith St ,Farmingdale,  New York,33301,
108,800 Technology Dr ,Fayetteville,  North Carolina,29707,
109,5-49 Cassens Ct ,Fenton,  Missouri,94536,
110,10777 Commerce Way ,Fontana,  California,92840,
111,4140 SW 30th Ave ,Fort Lauderdale,  Florida,75040,
112,1110 NE 8th Ave ,Fort Lauderdale,  Florida,22302,
113,3463 Lakemont Blvd ,Fort Mill,  South Carolina,85233,
114,41203-41215 Albrae St ,Fremont,  California,80401,
115,12862 Garden Grove Blvd ,Garden Grove,  California,80631,
116,1811 Wall St ,Garland,  Texas,27401,
117,1328 W San Pedro St ,Gilbert,  Arizona,27833,
118,21055 Westgate Rd ,Golden,  Colorado,29650,
119,360 O St ,Greeley,  Colorado,50111,
120,3123 Cedar Park ,Greensboro,  North Carolina,11788,
121,330 Pactolus Hwy ,Greenville,  North Carolina,7506,
122,1840 S Highway 14 ,Greer,  South Carolina,94540,
123,2824 Old Woodruff Rd ,Greer,  South Carolina,92802,
124,1300 SE Little Beaver Dr ,Grimes,  Iowa,63042,
125,923 Motor Pky ,Hauppauge,  New York,18201,
126,40 Oser Ave ,Hauppauge,  New York,91007,
127,185 Van Winkle Ave ,Hawthorne,  New Jersey,89002,
128,20551 Corsair Blvd ,Hayward,  California,28739,
129,11990 Missouri Bottom Rd ,Hazelwood,  Missouri,33002,
130,100-106 Maplewood Dr ,Hazleton,  Pennsylvania,11801,
131,86 Corporate Park Dr ,Henderson,  Nevada,97123,
132,980 American Pacific Dr ,Henderson,  Nevada,80002,
133,1170 Center Point Dr ,Henderson,  Nevada,28802,
134,145 Twin Springs Rd ,Hendersonville,  North Carolina,8844,
135,3850 W 108th St ,Hialeah,  Florida,33019,
136,3830 W 104th St ,Hialeah,  Florida,30302,
137,693 W 26th St ,Hialeah,  Florida,60503,
138,5150-5160 NW 165th St ,Hialeah,  Florida,73344,
139,344 Duffy Ave ,Hicksville,  New York,1748,
140,630 SW Walnut St ,Hillsboro,  Oregon,77001,
141,760 SW Adams Ave ,Hillsboro,  Oregon,93302,
142,120 Stryker Ln ,Hillsborough,  New Jersey,54016,
143,120 Stryker Ln ,Hillsborough,  New Jersey,8099,
144,2324-2390 Hayes St ,Hollywood,  Florida,77338,
145,4801-4859 Pembroke Rd ,Hollywood,  Florida,97702,
146,63-65 South St ,Hopkinton,  Massachusetts,92605,
147,3522 Bacor Rd ,Houston,  Texas,90255,
148,10001 Fannin St ,Houston,  Texas,33428,
149,707 N Shepherd Dr ,Houston,  Texas,83702,
150,13720 FM 529 Rd ,Houston,  Texas,2109,
151,8303-8315 Knight Rd ,Houston,  Texas,6602,
152,10060 W Sam Houston Pky S ,Houston,  Texas,10452,
153,5909 Beverly Hill St ,Houston,  Texas,11202,
154,14339 Auto Park Way ,Houston,  Texas,27216,
155,3550 Lang Rd ,Houston,  Texas,93011,
156,12300 N Houston Rosslyn Rd ,Houston,  Texas,44702,
157,827 W 34th St ,Houston,  Texas,91386,
158,9301-9307 Harwin Dr ,Houston,  Texas,20743,
159,11450 Bissonnet St ,Houston,  Texas,60128,
160,2950 S Shaver St ,Houston,  Texas,85130,
161,9801-9811 Harwin Dr ,Houston,  Texas,52402,
162,6030-6040 Brittmoore Rd ,Houston,  Texas,28202,
163,5301 Polk St ,Houston,  Texas,60602,
164,1137 Hackney St ,Houston,  Texas,91710,
165,1220 Telephone Rd ,Houston,  Texas,91910,
166,6931 Clinton Dr ,Houston,  Texas,91715,
167,1738 W Tidwell Rd ,Houston,  Texas,80902,
168,3001-3105 Jensen Dr ,Houston,  Texas,43201,
169,5301 Polk St ,Houston,  Texas,94519,
170,13225 FM 529 Rd ,Houston,  Texas,92878,
171,580 Schommer Dr ,Hudson,  Wisconsin,11746,
172,1902-2086 S Houston Ave ,Humble,  Texas,78634,
173,3435 FM 1960 Rd ,Humble,  Texas,78402,
174,18269 Gothard St ,Huntington Beach,  California,90301,
175,3383 E Gage Ave ,Huntington Park,  California,92602,
176,6195 Maywood Ave ,Huntington Park,  California,33442,
177,200 E 2nd St ,Huntington Station,  New York,75014,
178,107 Mcnutt Rd ,Hutto,  Texas,11405,
179,440 S Hindry Ave ,Inglewood,  California,60431,
180,3738-3742 W Century Blvd ,Inglewood,  California,33445,
181,17352 Derian Ave ,Irvine,  California,28081,
182,6 Mason ,Irvine,  California,50302,
183,8404 Esters Blvd ,Irving,  Texas,64101,
184,1634-1638 E Irving Blvd ,Irving,  Texas,48202,
185,10110 Van Wyck Expy ,Jamaica,  New York,7032,
186,11060 Dunkirk St ,Jamaica,  New York,19903,
187,420 Woodruff Rd ,Joliet,  Illinois,7033,
188,1000 Mooresville Rd ,Kannapolis,  North Carolina,30144,
189,8201 E 23rd St ,Kansas City,  Missouri,98033,
190,100 3rd Ave ,Kearny,  New Jersey,37901,
191,236 Schuyler Ave ,Kearny,  New Jersey,60516,
192,221 S 31st St ,Kenilworth,  New Jersey,30728,
193,326 N 14th St ,Kenilworth,  New Jersey,8818,
194,22 Columbus Ave ,Kenilworth,  New Jersey,46515,
195,7040 Battle Dr ,Kennesaw,  Georgia,90631,
196,8700-8900 122nd Ave NE ,Kirkland,  Washington,37086,
197,7139-7141 Regal Ln ,Knoxville,  Tennessee,98503,
198,110 W McCarter Rd ,La Fayette,  Georgia,47901,
199,641 S Palm St ,La Habra,  California,60046,
200,101 Wheeler St ,La Vergne,  Tennessee,33801,
201,8920 Orion Dr NE ,Lacey,  Washington,89101,
202,733 Navco Dr ,Lafayette,  Indiana,38351,
203,220 Lake Ave ,Lake Villa,  Illinois,68501,
204,Old Tampa Hwy ,Lakeland,  Florida,7644,
205,51 Hypoluxo Rd ,Lantana,  Florida,90801,
206,7155 S Buffalo Dr ,Las Vegas,  Nevada,11101,
207,2545 W Cheyenne Ave ,Las Vegas,  Nevada,11737,
208,3950-3970 Las Vegas Blvd ,Las Vegas,  Nevada,28302,
209,1510 Greendale Rd ,Lexington,  Kentucky,22079,
210,245 Holly St ,Lexington,  Tennessee,90720,
211,201 NW 28th St ,Lincoln,  Nebraska,90001,
212,300 Columbia Ave ,Lodi,  New Jersey,37774,
213,1580 W Carson St ,Long Beach,  California,33548,
214,3235 48th Ave ,Long Island City,  New York,1901,
215,7350-7370 Lockport Pl ,Lorton,  Virginia,3101,
216,7401-7403 Lockport Pl ,Lorton,  Virginia,63099,
217,7409-7411 Lockport Pl ,Lorton,  Virginia,92334,
218,8535 Terminal Rd ,Lorton,  Virginia,33302,
219,8532 Terminal Rd ,Lorton,  Virginia,29708,
220,8534 Terminal Rd ,Lorton,  Virginia,94537,
221,3882 Florista St ,Los Alamitos,  California,63043,
222,1024 Santee St ,Los Angeles,  California,78501,
223,156 W Slauson Ave ,Los Angeles,  California,92841,
224,425 E 58th St ,Los Angeles,  California,75041,
225,2815-2819 Southwest Dr ,Los Angeles,  California,85234,
226,2515 S Broadway ,Los Angeles,  California,80402,
227,1814-1822 E 41st Pl ,Los Angeles,  California,80632,
228,3435-3535 S Broadway ,Los Angeles,  California,27402,
229,1507-1509 Maple Ave ,Los Angeles,  California,27834,
230,1920-1930 E 15th St ,Los Angeles,  California,29651,
231,1634 Long Beach Ave ,Los Angeles,  California,7507,
232,1715 Wall St ,Los Angeles,  California,94541,
233,1359 E Washington Blvd ,Los Angeles,  California,18202,
234,1355 E Washington Blvd ,Los Angeles,  California,89009,
235,210 Williamson Dr ,Loudon,  Tennessee,97501,
236,4427 Pet Ln ,Lutz,  Florida,37501,
237,71 Linden St ,Lynn,  Massachusetts,33101,
238,101 E Industrial Park Dr ,Manchester,  New Hampshire,10940,
239,2051-2067 Concourse Dr ,Maryland Heights,  Missouri,79701,
240,6001 International Pky ,McAllen,  Texas,58701,
241,1061 Dillon Way ,Medford,  Oregon,28110,
242,10811-11199 NW 122nd St ,Medley,  Florida,90640,
243,3909 Outland Rd ,Memphis,  Tennessee,27560,
244,3200 NW 67th Ave ,Miami,  Florida,10549,
245,7121-7125 NW 6th Ave ,Miami,  Florida,28791,
246,6991-6995 NW 82nd Ave ,Miami,  Florida,33010,
247,7801 NW 29th St ,Miami,  Florida,11802,
248,2540 NW 74th St ,Miami,  Florida,97124,
249,7790 NW 32nd St ,Miami,  Florida,33020,
250,10631 NW 123rd St ,Miami,  Florida,77002,
251,13500 SW 128th St ,Miami,  Florida,77346,
252,9450 NW 58th St ,Miami,  Florida,92615,
253,4001 NW 77th Ave ,Miami,  Florida,90302,
254,10351-10375 SW 187th St ,Miami,  Florida,92603,
255,1151-1155 NW 159th Dr ,Miami,  Florida,75015,
256,706-710 NW 25th St ,Miami,  Florida,11424,
257,334 County Route 49 ,Middletown,  New York,37201,
258,45 Turner Dr ,Middletown,  New York,60432,
259,2915 W County Road 130 ,Midland,  Texas,78130,
260,2047 Commerce Dr ,Midland,  Texas,28082,
261,309 40th Ave NW ,Minot,  North Dakota,34652,
262,650 Broome St ,Monroe,  North Carolina,19702,
263,915 Curtis St ,Monroe,  North Carolina,64102,
264,209 E Myers St ,Monroe,  North Carolina,7099,
265,7137 Telegraph Rd ,Montebello,  California,73068,
266,300 Dominion Dr ,Morrisville,  North Carolina,30003,
267,333 N Bedford Rd ,Mount Kisco,  New York,7047,
268,906 Hart Ln ,Nashville,  Tennessee,8902,
269,175 Southwestern Ave ,New Braunfels,  Texas,2852,
270,7400 US Highway 19 ,New Port Richey,  Florida,60062,
271,300 Gabor Dr ,Newark,  Delaware,91324,
272,1600 N Main St ,Noble,  Oklahoma,6850,
273,450 S Cemetery St ,Norcross,  Georgia,7648,
274,1-9 Hicks ,North Amityville,  New York,48374,
275,7001 Anpesil Dr ,North Bergen,  New Jersey,94561,
276,585-601 Nassau St ,North Brunswick,  New Jersey,64076,
277,342 Compass Cir ,North Kingstown,  Rhode Island,84201,
278,3501 Woodhead Dr ,Northbrook,  Illinois,73101,
279,8747 Shirley Ave ,Northridge,  California,66051,
280,314 Wilson Ave ,Norwalk,  Connecticut,68101,
281,50 Maple St ,Norwood,  New Jersey,91758,
282,25000 Trans-X Rd ,Novi,  Michigan,33054,
283,2910 NW 17th Ter ,Oakland Park,  Florida,92856,
284,5351 Neroly Rd ,Oakley,  California,32801,
285,1232-1248 W US Highway 40 ,Odessa,  Missouri,93030,
286,2487 S 1620 W ,Ogden,  Utah,34220,
287,3700 W I-40 Service Rd ,Oklahoma City,  Oklahoma,26101,
288,1244 NW 4th St ,Oklahoma City,  Oklahoma,30152,
289,1150 W 151st St ,Olathe,  Kansas,7501,
290,15225 Industrial Rd ,Omaha,  Nebraska,1960,
291,1001 Doubleday Ave ,Ontario,  California,78660,
292,401 S Sultana Ave ,Ontario,  California,98034,
293,2095 NW 141st St ,Opa Locka,  Florida,19019,
294,910-940 N Batavia St ,Orange,  California,85001,
295,6457 Hazeltine National Dr ,Orlando,  Florida,92870,
296,6121-6131 Anno Ave ,Orlando,  Florida,37902,
297,2364 E Sturgis Rd ,Oxnard,  California,33388,
298,701 Del Norte Blvd ,Oxnard,  California,90632,
299,2400 Celsius Ave ,Oxnard,  California,37089,
300,2310 S Dock St ,Palmetto,  Florida,33060,
301,3901 Camden Ave ,Parkersburg,  West Virginia,48340,
302,36 Peel St ,Paterson,  New Jersey,11050,
303,58 Pulaski St ,Peabody,  Massachusetts,97201,
304,4674 Priem Ln ,Pflugerville,  Texas,27601,
305,3450 Salmon St ,Philadelphia,  Pennsylvania,91701,
306,3011 E Broadway Ave ,Phoenix,  Arizona,7869,
307,2050 S 16th St ,Phoenix,  Arizona,98509,
308,540-544 S Melrose St ,Placentia,  California,2767,
309,1360 NW 65th Ave ,Plantation,  Florida,94801,
310,2041 NW 15th Ave ,Pompano Beach,  Florida,20847,
311,1440 SW 28th Ave ,Pompano Beach,  Florida,47902,
312,60 Baldwin Ave ,Pontiac,  Michigan,28138,
313,57 Seaview Blvd ,Port Washington,  New York,60446,
314,750 Warren Ave ,Portland,  Maine,11779,
315,700-714 NE 55th Ave ,Portland,  Oregon,94203,
316,6300 Westgate Rd ,Raleigh,  North Carolina,60174,
317,6231 Westgate Rd ,Raleigh,  North Carolina,33802,
318,11650 Mission Park Dr ,Rancho Cucamonga,  California,63101,
319,10285 Indiana Ct ,Rancho Cucamonga,  California,89102,
320,8351 Rochester Ave ,Rancho Cucamonga,  California,68502,
321,2361-2399 E Pacifica Pl ,Rancho Dominguez,  California,33701,
322,3 Aspen Dr ,Randolph,  New Jersey,84101,
323,65 Ryan Dr ,Raynham,  Massachusetts,33576,
324,740 Market Richmond Ca ,Richmond,  California,94102,
325,8111 Garden Rd ,Riviera Beach,  Florida,95101,
326,1100-1146 Taft St ,Rockville,  Maryland,78666,
327,305 Link St ,Rockwell,  North Carolina,92701,
328,554 Anderson Dr ,Romeoville,  Illinois,95401,
329,1231-1233 Naperville Dr ,Romeoville,  Illinois,90802,
330,2060 Ninth Ave ,Ronkonkoma,  New York,10583,
331,333 N 7th St ,Sacramento,  California,85250,
332,731 N 17th St ,Saint Charles,  Illinois,28150,
333,750 N 17th St ,Saint Charles,  Illinois,11109,
334,761 N 17th St ,Saint Charles,  Illinois,22199,
335,1500 Foundry St ,Saint Charles,  Illinois,90721,
336,2300 Clark Ave ,Saint Louis,  Missouri,93062,
337,6101 45th St N ,Saint Petersburg,  Florida,18966,
338,864-866 S 500 W ,Salt Lake City,  Utah,89431,
339,11820 Uradco Pl ,San Antonio,  Florida,29301,
340,2160-2200 Palou Ave ,San Francisco,  California,77373,
341,2225-2295 Palou Ave ,San Francisco,  California,90002,
342,154-156 Mississippi St ,San Francisco,  California,33549,
343,1766 Junction Ave ,San Jose,  California,22150,
344,555 Tully Rd ,San Jose,  California,1902,
345,200 Posey Rd ,San Marcos,  Texas,77477,
346,2200 S Interstate 35 ,San Marcos,  Texas,3102,
347,1121 Wakeham Ave ,Santa Ana,  California,10301,
348,1005 Cleveland Ave ,Santa Rosa,  California,48310,
349,170 Brook St ,Scarsdale,  New York,29483,
350,6405 E Thomas Rd ,Scottsdale,  Arizona,13201,
351,1001-2001 Partnership Dr ,Shelby,  North Carolina,32301,
352,23 W Easy St ,Simi Valley,  California,33601,
353,8 Leecon Ct ,Southampton,  New York,91356,
354,1020 Industrial Blvd ,Southampton,  Pennsylvania,76574,
355,260 Coney Island Dr ,Sparks,  Nevada,97062,
356,240-250 S Stanford Way ,Sparks,  Nevada,78502,
357,344 Wingo Heights Rd ,Spartanburg,  South Carolina,7087,
358,4503 Spring Cypress Rd ,Spring,  Texas,91354,
359,720 35th St ,Springfield,  Oregon,91401,
360,7664 Fullerton Rd ,Springfield,  Virginia,98660,
361,7631 Fullerton Rd ,Springfield,  Virginia,97504,
362,12603 Executive Dr ,Stafford,  Texas,60061,
363,101 Ellis St ,Staten Island,  New York,96793,
364,42150 Mound Rd ,Sterling Heights,  Michigan,91788,
365,537 Omni Industrial Blvd ,Summerville,  South Carolina,11704,
366,104 Mitchell Dr ,Summerville,  South Carolina,37544,
367,112-114 Baker St ,Syracuse,  New York,60185,
368,900 Hiawatha Blvd E ,Syracuse,  New York,33102,
369,4979 W Pensacola St ,Tallahassee,  Florida,15122,
370,111 Hamilton Park Dr ,Tallahassee,  Florida,10941,
371,5005 N Lois Ave ,Tampa,  Florida,33401,
372,18740 Oxnard St ,Tarzana,  California,70669,
373,197 S Edmonds St ,Taylor,  Texas,48185,
374,19450 SW 129th Ave ,Tualatin,  Oregon,80030,
375,30069-30083 Ahern Ave ,Union City,  California,7981,
376,S Fulton And Stonewall Tell ,Union City,  Georgia,1801,
377,600 Palisade Ave ,Union City,  New Jersey,11377,
378,25215-25217 Rye Canyon Rd ,Valencia,  California,11377,
379,7737-7741 Burnet Ave ,Van Nuys,  California,11377,
380,7631-7637 Haskell Ave ,Van Nuys,  California,79702,
381,12308 NE 56th St ,Vancouver,  Washington,79702,
382,311 E Reserve St ,Vancouver,  Washington,58702,
383,450 E Bunker Ct ,Vernon Hills,  Illinois,58702,
384,1331 Eha St ,Wailuku,  Hawaii,58702,
385,3960 E Valley Blvd ,Walnut,  California,58702,
386,3900 Valley Blvd ,Walnut,  California,28111,
387,3820 W Valley Blvd ,Walnut,  California,37202,
388,384-390 S Lemon Ave ,Walnut,  California,78131,
389,95 Edison Ave ,West Babylon,  New York,78131,
390,396 W Fenton Ln ,West Chicago,  Illinois,78131,
391,2930-2932 Lebanon Church Rd ,West Mifflin,  Pennsylvania,78131,
392,420 6th St ,West Palm Beach,  Florida,78131,
393,1861 Bayou Dinde Pass ,Westlake,  Louisiana,78131,
394,39072-39092 Webb Dr ,Westland,  Michigan,78131,
395,9085 Marshall Ct ,Westminster,  Colorado,78131,
396,24 Troy Rd ,Whippany,  New Jersey,78131,
397,225-227 New Boston St ,Woburn,  Massachusetts,78131,
398,30-30A 60th St ,Woodside,  New York,78131,
399,535 Lakeview Plaza Blvd ,Worthington,  Ohio,78131,
